{"fetched_at":"2026-03-29T02:12:04Z","count":15717,"tles":[{"name":"USA 149 (DSP 20)","line1":"1 26356U 00024A   26087.52892140  .00000082  00000+0  00000+0 0  9990","line2":"2 26356  13.1114  12.4222 0001664 329.8122 229.0264  1.00264066 32108","category":"Military"}]}