{
  "norad_id": 26356,
  "name": "USA 149 (DSP 20)",
  "history": [
    {
      "epoch": "2026-03-28T12:41:38.808096",
      "apogee_km": 35795.7755874217,
      "perigee_km": 35781.742444427604,
      "latitude_deg": -12.849200090533397,
      "longitude_deg": 106.3764534399379,
      "semi_major_axis_km": 42166.896015924656,
      "eccentricity": 0.0001664,
      "inclination_deg": 13.1114,
      "raan_deg": 12.4222,
      "arg_perigee_deg": 329.8122,
      "mean_anomaly_deg": 229.0264,
      "mean_motion_rev_day": 1.00264066
    }
  ]
}